[
    {
        "Altitude(m)": 703239.5290722372,
        "Argument of Periapsis(deg)": 0.0022780242373254137,
        "Eccentricity": 0.0,
        "Inclination(deg)": 45.0,
        "Latitude(deg)": 1.5812227552998912,
        "Longitude(deg)": 21.44309620014207,
        "Mean Anomaly(deg)": 2.3066433294961697,
        "RAAN(deg)": 119.99784961170836,
        "Satellite Name": "Constellation 1 528",
        "Satellite Number": 528,
        "Semi-Major Axis(m)": 7083131.272910544,
        "Time(s)": 38
    },
    {
        "Altitude(m)": 703234.6927163441,
        "Argument of Periapsis(deg)": 0.002337972243570819,
        "Eccentricity": 0.0,
        "Inclination(deg)": 45.0,
        "Latitude(deg)": 1.6244240373394676,
        "Longitude(deg)": 21.481880808626435,
        "Mean Anomaly(deg)": 2.3673444697460817,
        "RAAN(deg)": 119.99779302254277,
        "Satellite Name": "Constellation 1 528",
        "Satellite Number": 528,
        "Semi-Major Axis(m)": 7083131.272910544,
        "Time(s)": 39
    },
    {
        "Altitude(m)": 703229.8771908744,
        "Argument of Periapsis(deg)": 0.0023979202498162246,
        "Eccentricity": 0.0,
        "Inclination(deg)": 45.0,
        "Latitude(deg)": 1.6676244497782404,
        "Longitude(deg)": 21.520667302049905,
        "Mean Anomaly(deg)": 2.428045609995968,
        "RAAN(deg)": 119.99773643337721,
        "Satellite Name": "Constellation 1 528",
        "Satellite Number": 528,
        "Semi-Major Axis(m)": 7083131.272910544,
        "Time(s)": 40
    },
    {
        "Altitude(m)": 703225.0824986614,
        "Argument of Periapsis(deg)": 0.00245786825606163,
        "Eccentricity": 0.0,
        "Inclination(deg)": 45.0,
        "Latitude(deg)": 1.7108239676018797,
        "Longitude(deg)": 21.559455728803723,
        "Mean Anomaly(deg)": 2.48874675024588,
        "RAAN(deg)": 119.99767984421166,
        "Satellite Name": "Constellation 1 528",
        "Satellite Number": 528,
        "Semi-Major Axis(m)": 7083131.272910544,
        "Time(s)": 41
    },
    {
        "Altitude(m)": 703220.3086424454,
        "Argument of Periapsis(deg)": 0.002517816262307036,
        "Eccentricity": 0.0,
        "Inclination(deg)": 45.0,
        "Latitude(deg)": 1.7540225657922137,
        "Longitude(deg)": 21.598246137283596,
        "Mean Anomaly(deg)": 2.5494478904957414,
        "RAAN(deg)": 119.99762325504607,
        "Satellite Name": "Constellation 1 528",
        "Satellite Number": 528,
        "Semi-Major Axis(m)": 7083131.272910544,
        "Time(s)": 42
    },
    {
        "Altitude(m)": 703215.555624872,
        "Argument of Periapsis(deg)": 0.0025777642685524413,
        "Eccentricity": 0.0,
        "Inclination(deg)": 45.0,
        "Latitude(deg)": 1.7972202193272113,
        "Longitude(deg)": 21.637038575890056,
        "Mean Anomaly(deg)": 2.610149030745653,
        "RAAN(deg)": 119.99756666588051,
        "Satellite Name": "Constellation 1 528",
        "Satellite Number": 528,
        "Semi-Major Axis(m)": 7083131.272910544,
        "Time(s)": 43
    },
    {
        "Altitude(m)": 703210.8234484944,
        "Argument of Periapsis(deg)": 0.002637712274797847,
        "Eccentricity": 0.0,
        "Inclination(deg)": 45.0,
        "Latitude(deg)": 1.8404169031804798,
        "Longitude(deg)": 21.675832924931164,
        "Mean Anomaly(deg)": 2.6708501709955397,
        "RAAN(deg)": 119.99751007671492,
        "Satellite Name": "Constellation 1 528",
        "Satellite Number": 528,
        "Semi-Major Axis(m)": 7083131.272910544,
        "Time(s)": 44
    },
    {
        "Altitude(m)": 703206.1121157713,
        "Argument of Periapsis(deg)": 0.0026976602810432526,
        "Eccentricity": 0.0,
        "Inclination(deg)": 45.0,
        "Latitude(deg)": 1.8836125923224494,
        "Longitude(deg)": 21.714629569011198,
        "Mean Anomaly(deg)": 2.7315513112454513,
        "RAAN(deg)": 119.99745348754936,
        "Satellite Name": "Constellation 1 528",
        "Satellite Number": 528,
        "Semi-Major Axis(m)": 7083131.272910544,
        "Time(s)": 45
    },
    {
        "Altitude(m)": 703201.4216290704,
        "Argument of Periapsis(deg)": 0.0027576082872886585,
        "Eccentricity": 0.0,
        "Inclination(deg)": 45.0,
        "Latitude(deg)": 1.926807261718465,
        "Longitude(deg)": 21.75342838844809,
        "Mean Anomaly(deg)": 2.7922524514953633,
        "RAAN(deg)": 119.9973968983838,
        "Satellite Name": "Constellation 1 528",
        "Satellite Number": 528,
        "Semi-Major Axis(m)": 7083131.272910544,
        "Time(s)": 46
    },
    {
        "Altitude(m)": 703196.7519906594,
        "Argument of Periapsis(deg)": 0.0028175562935340644,
        "Eccentricity": 0.0,
        "Inclination(deg)": 45.0,
        "Latitude(deg)": 1.9700008863298872,
        "Longitude(deg)": 21.792229431662033,
        "Mean Anomaly(deg)": 2.8529535917452495,
        "RAAN(deg)": 119.99734030921822,
        "Satellite Name": "Constellation 1 528",
        "Satellite Number": 528,
        "Semi-Major Axis(m)": 7083131.272910544,
        "Time(s)": 47
    },
    {
        "Altitude(m)": 703192.1032027198,
        "Argument of Periapsis(deg)": 0.00287750429977947,
        "Eccentricity": 0.0,
        "Inclination(deg)": 45.0,
        "Latitude(deg)": 2.013193441113711,
        "Longitude(deg)": 21.83103274707838,
        "Mean Anomaly(deg)": 2.913654731995162,
        "RAAN(deg)": 119.99728372005266,
        "Satellite Name": "Constellation 1 528",
        "Satellite Number": 528,
        "Semi-Major Axis(m)": 7083131.272910544,
        "Time(s)": 48
    },
    {
        "Altitude(m)": 703187.4752673336,
        "Argument of Periapsis(deg)": 0.002937452306024875,
        "Eccentricity": 0.0,
        "Inclination(deg)": 45.0,
        "Latitude(deg)": 2.056384901022468,
        "Longitude(deg)": 21.869838383127885,
        "Mean Anomaly(deg)": 2.9743558722450483,
        "RAAN(deg)": 119.9972271308871,
        "Satellite Name": "Constellation 1 528",
        "Satellite Number": 528,
        "Semi-Major Axis(m)": 7083131.272910544,
        "Time(s)": 49
    },
    {
        "Altitude(m)": 703182.868186492,
        "Argument of Periapsis(deg)": 0.0029974003122702807,
        "Eccentricity": 0.0,
        "Inclination(deg)": 45.0,
        "Latitude(deg)": 2.0995752410041386,
        "Longitude(deg)": 21.90864638824652,
        "Mean Anomaly(deg)": 3.0350570124949603,
        "RAAN(deg)": 119.99717054172152,
        "Satellite Name": "Constellation 1 528",
        "Satellite Number": 528,
        "Semi-Major Axis(m)": 7083131.272910544,
        "Time(s)": 50
    },
    {
        "Altitude(m)": 703178.2819620904,
        "Argument of Periapsis(deg)": 0.0030573483185156866,
        "Eccentricity": 0.0,
        "Inclination(deg)": 45.0,
        "Latitude(deg)": 2.1427644360020603,
        "Longitude(deg)": 21.947456810876012,
        "Mean Anomaly(deg)": 3.095758152744847,
        "RAAN(deg)": 119.99711395255595,
        "Satellite Name": "Constellation 1 528",
        "Satellite Number": 528,
        "Semi-Major Axis(m)": 7083131.272910544,
        "Time(s)": 51
    },
    {
        "Altitude(m)": 703173.7165959389,
        "Argument of Periapsis(deg)": 0.003117296324761092,
        "Eccentricity": 0.0,
        "Inclination(deg)": 45.0,
        "Latitude(deg)": 2.1859524609545287,
        "Longitude(deg)": 21.986269531366506,
        "Mean Anomaly(deg)": 3.156459292994759,
        "RAAN(deg)": 119.99705736339037,
        "Satellite Name": "Constellation 1 528",
        "Satellite Number": 528,
        "Semi-Major Axis(m)": 7083131.272910544,
        "Time(s)": 52
    },
    {
        "Altitude(m)": 703169.1720897414,
        "Argument of Periapsis(deg)": 0.0031772443310064975,
        "Eccentricity": 0.0,
        "Inclination(deg)": 45.0,
        "Latitude(deg)": 2.2291392907959287,
        "Longitude(deg)": 22.02508493436516,
        "Mean Anomaly(deg)": 3.217160433244645,
        "RAAN(deg)": 119.9970007742248,
        "Satellite Name": "Constellation 1 528",
        "Satellite Number": 528,
        "Semi-Major Axis(m)": 7083131.272910544,
        "Time(s)": 53
    },
    {
        "Altitude(m)": 703164.6484451195,
        "Argument of Periapsis(deg)": 0.0032371923372519038,
        "Eccentricity": 0.0,
        "Inclination(deg)": 45.0,
        "Latitude(deg)": 2.2723249004548096,
        "Longitude(deg)": 22.063902900233707,
        "Mean Anomaly(deg)": 3.277861573494557,
        "RAAN(deg)": 119.99694418505925,
        "Satellite Name": "Constellation 1 528",
        "Satellite Number": 528,
        "Semi-Major Axis(m)": 7083131.272910544,
        "Time(s)": 54
    },
    {
        "Altitude(m)": 703160.1456635925,
        "Argument of Periapsis(deg)": 0.0032971403434973088,
        "Eccentricity": 0.0,
        "Inclination(deg)": 45.0,
        "Latitude(deg)": 2.315509264855026,
        "Longitude(deg)": 22.102723477436953,
        "Mean Anomaly(deg)": 3.338562713744469,
        "RAAN(deg)": 119.99688759589365,
        "Satellite Name": "Constellation 1 528",
        "Satellite Number": 528,
        "Semi-Major Axis(m)": 7083131.272910544,
        "Time(s)": 55
    },
    {
        "Altitude(m)": 703155.66374659,
        "Argument of Periapsis(deg)": 0.0033570883497427146,
        "Eccentricity": 0.0,
        "Inclination(deg)": 45.0,
        "Latitude(deg)": 2.3586923589153224,
        "Longitude(deg)": 22.14154671444579,
        "Mean Anomaly(deg)": 3.3992638539943556,
        "RAAN(deg)": 119.9968310067281,
        "Satellite Name": "Constellation 1 528",
        "Satellite Number": 528,
        "Semi-Major Axis(m)": 7083131.272910544,
        "Time(s)": 56
    }
]